SL-16 R/B               
1 28353U 04021B   15360.79727123 -.00000208  00000-0 -84208-4 0  9999
2 28353  71.0017 127.5264 0007661 288.9408  71.0883 14.14173120596040
CZ-2C R/B               
1 28480U 04046B   15361.47351911  .00000072  00000-0  42881-4 0  9999
2 28480  98.1645 121.9812 0142336  12.2527  29.2244 14.25557793577627
ARIANE 5 R/B            
1 28499U 04049H   15361.32573495  .00000434  00000-0  61180-4 0  9994
2 28499  98.1304  68.7864 0093508 150.4360 249.1594 14.79600358594456
CZ-2D R/B               
1 28738U 05024B   15360.83294714  .00001888  00000-0  11974-3 0  9992
2 28738  97.5645  35.3073 0013915  58.8759 301.3833 15.10048994574534
SUZAKU (ASTRO-EII)      
1 28773U 05025A   15361.51910935  .00003140  00000-0  16413-3 0  9994
2 28773  31.3816 179.0040 0005119 356.0893   3.9713 15.14007429575746
ALOS (DAICHI)           
1 28931U 06002A   15360.87346976  .00000386  00000-0  85593-4 0  9997
2 28931  97.9087  42.3232 0001140 141.9190 218.2093 14.62078785528796
H-2A R/B                
1 28932U 06002B   15361.35647634  .00001896  00000-0  18622-3 0  9992
2 28932  98.2308 251.4961 0090206 272.8263 221.6033 14.90531114537664
AKARI (ASTRO-F)         
1 28939U 06005A   15360.49339884  .00009987  00000-0  35233-3 0  9997
2 28939  98.2170 135.0967 0120115 248.3037 110.5374 15.22816384530940
RESURS-DK 1             
1 29228U 06021A   15361.06476253  .00000761  00000-0  65833-4 0  9994
2 29228  69.9376  26.7912 0001480  93.0807 267.0520 15.01716090527301
GENESIS 1               
1 29252U 06029A   15360.88922473  .00002408  00000-0  13475-3 0  9992
2 29252  64.5061 242.0360 0045327 245.7110 191.1801 15.15321121520226
CZ-4B R/B               
1 29507U 06046C   15361.47482077  .00001889  00000-0  15731-3 0  9990
2 29507  97.7799 357.8203 0035505 270.8792  88.8363 14.99418453500441
CZ-2C R/B               
1 31114U 07010B   15360.77847399  .00000065  00000-0  49842-4 0  9999
2 31114  98.4139 279.4728 0059471 339.1304  20.7446 14.19180655451142
COSMO-SKYMED 1          
1 31598U 07023A   15361.04874417 -.00000499  00000-0 -56132-4 0  9994
2 31598  97.8788 182.1447 0001150  79.4869 280.6374 14.82164043462737
GENESIS 2               
1 31789U 07028A   15360.85542971  .00002996  00000-0  16737-3 0  9994
2 31789  64.5071 278.2062 0050526 288.5364  71.0272 15.14593047467324
COSMOS 2428             
1 31792U 07029A   15361.07909197  .00000137  00000-0  10000-3 0  9993
2 31792  70.9614 101.1598 0009734 356.6218  60.9473 14.12458217438098
SL-16 R/B               
1 31793U 07029B   15361.44315277 -.00000244  00000-0 -10258-3 0  9991
2 31793  70.9760  78.6710 0002879 264.2116 171.7984 14.14345701438687
KORONAS-FOTON           
1 33504U 09003A   15360.67679897  .00002307  00000-0  12528-3 0  9994
2 33504  82.4432  47.7771 0020453 165.5936 194.5883 15.13866321379971
TIANGONG 1              
1 37820U 11053A   15361.05450429  .00014406  00000-0  19366-3 0  9998
2 37820  42.7634 198.7587 0010773 297.6635 200.4707 15.57644459243536
CUSAT 2 & FALCON 9 R/B  
1 39271U 13055G   15360.20422956  .00011932  00000-0  32903-3 0  9997
2 39271  80.9696 203.3933 0675264 346.2282  12.1232 14.26935561115440
